1 46984U 20086A   25332.03997069 -.00000048  00000-0  56331-4 0  9990
2 46984  66.0391 192.8396 0007735 269.0662  90.9467 12.80929858234566
1 46984U 20086A   25332.35227446 -.00000046  00000-0  64512-4 0  9998
2 46984  66.0390 192.1912 0007737 269.1581  90.8548 12.80929889234603
1 46984U 20086A   25332.97688189 -.00000038  00000-0  99686-4 0  9992
2 46984  66.0389 190.8938 0007728 269.1273  90.8857 12.80929962234685
1 46984U 20086A   25333.28918565 -.00000040  00000-0  92605-4 0  9998
2 46984  66.0388 190.2451 0007729 269.1300  90.8829 12.80929953234724
1 46984U 20086A   25333.83571719 -.00000034  00000-0  11852-3 0  9992
2 46984  66.0388 189.1099 0007734 269.1041  90.9088 12.80929977234798
1 46984U 20086A   25333.99186911 -.00000032  00000-0  12530-3 0  9997
2 46984  66.0388 188.7856 0007729 269.1101  90.9028 12.80929975234810
1 46984U 20086A   25334.53840073 -.00000030  00000-0  13372-3 0  9997
2 46984  66.0387 187.6505 0007734 269.1126  90.9003 12.80929967234882
1 46984U 20086A   25334.61647669 -.00000032  00000-0  12627-3 0  9996
2 46984  66.0387 187.4883 0007730 269.1156  90.8973 12.80929961234898
1 46984U 20086A   25334.85070450 -.00000030  00000-0  13344-3 0  9995
2 46984  66.0387 187.0019 0007734 269.1198  90.8931 12.80929956234927
1 46984U 20086A   25334.92878047 -.00000031  00000-0  13070-3 0  9998
2 46984  66.0388 186.8397 0007737 269.1373  90.8756 12.80929946234937
1 46984U 20086A   25335.00685639 -.00000030  00000-0  13505-3 0  9993
2 46984  66.0388 186.6775 0007732 269.1330  90.8799 12.80929961234948
1 46984U 20086A   25335.31916012 -.00000027  00000-0  14776-3 0  9996
2 46984  66.0388 186.0288 0007731 269.1428  90.8701 12.80929990234987
1 46984U 20086A   25335.63146383 -.00000027  00000-0  14573-3 0  9992
2 46984  66.0387 185.3802 0007729 269.1179  90.8951 12.80930010235028
1 46984U 20086A   25335.86569168 -.00000030  00000-0  13495-3 0  9993
2 46984  66.0388 184.8937 0007730 269.1242  90.8887 12.80929979235058
1 46984U 20086A   25336.02184355 -.00000034  00000-0  11631-3 0  9997
2 46984  66.0388 184.5694 0007731 269.1438  90.8692 12.80929960235079
1 46984U 20086A   25336.02184356 -.00000034  00000-0  11631-3 0  9998
2 46984  66.0388 184.5694 0007731 269.1438  90.8692 12.80929960235079
1 46984U 20086A   25336.64645097 -.00000035  00000-0  11408-3 0  9993
2 46984  66.0388 183.2720 0007731 269.1307  90.8822 12.80929994235151
1 46984U 20086A   25336.80260284 -.00000034  00000-0  11631-3 0  9999
2 46984  66.0388 182.9477 0007733 269.1340  90.8789 12.80929984235178
1 46984U 20086A   25337.03683058 -.00000030  00000-0  13407-3 0  9992
2 46984  66.0388 182.4612 0007730 269.1497  90.8633 12.80930029235208
1 46984U 20086A   25337.27105829 -.00000024  00000-0  15899-3 0  9993
2 46984  66.0389 181.9748 0007729 269.1854  90.8276 12.80930094235236
1 46984U 20086A   25337.50528609 -.00000021  00000-0  17302-3 0  9992
2 46984  66.0389 181.4883 0007725 269.1629  90.8501 12.80930117235267
1 46984U 20086A   25337.81758975 -.00000025  00000-0  15835-3 0  9990
2 46984  66.0390 180.8397 0007731 269.1614  90.8516 12.80930114235301
1 46984U 20086A   25337.89566562 -.00000020  00000-0  17951-3 0  9993
2 46984  66.0390 180.6775 0007738 269.1609  90.8520 12.80930156235312
1 46984U 20086A   25337.97374154 -.00000020  00000-0  17982-3 0  9990
2 46984  66.0390 180.5154 0007737 269.1652  90.8477 12.80930164235320
1 46984U 20086A   25337.97374154 -.00000020  00000-0  17982-3 0  9990
2 46984  66.0390 180.5154 0007737 269.1652  90.8477 12.80930164235320
1 46984U 20086A   25338.59834879 -.00000015  00000-0  19896-3 0  9994
2 46984  66.0390 179.2181 0007728 269.1498  90.8632 12.80930279235402
1 46984U 20086A   25338.67642469 -.00000018  00000-0  18539-3 0  9991
2 46984  66.0390 179.0559 0007731 269.1528  90.8601 12.80930272235417
1 46984U 20086A   25338.83257654 -.00000021  00000-0  17332-3 0  9991
2 46984  66.0391 178.7316 0007732 269.1568  90.8561 12.80930253235436
1 46984U 20086A   25338.83257655 -.00000021  00000-0  17332-3 0  9992
2 46984  66.0391 178.7316 0007732 269.1568  90.8561 12.80930253235436
1 46984U 20086A   25339.92563928 -.00000036  00000-0  10731-3 0  9998
2 46984  66.0392 176.4614 0007736 269.1810  90.8319 12.80930287235570
1 46984U 20086A   25340.23794287 -.00000039  00000-0  95368-4 0  9991
2 46984  66.0392 175.8127 0007737 269.2130  90.7999 12.80930314235618
1 46984U 20086A   25340.62832238 -.00000042  00000-0  83184-4 0  9990
2 46984  66.0392 175.0019 0007741 269.1919  90.8209 12.80930339235666
1 46984U 20086A   25340.94062606 -.00000047  00000-0  60615-4 0  9998
2 46984  66.0392 174.3533 0007741 269.2083  90.8045 12.80930313235707
1 46984U 20086A   25341.25292966 -.00000051  00000-0  45197-4 0  9990
2 46984  66.0392 173.7046 0007742 269.2363  90.7766 12.80930326235748
1 46984U 20086A   25341.87753688 -.00000056  00000-0  22683-4 0  9991
2 46984  66.0392 172.4073 0007741 269.1959  90.8169 12.80930340235826
1 46984U 20086A   25342.26791636 -.00000051  00000-0  44024-4 0  9998
2 46984  66.0392 171.5965 0007737 269.2421  90.7708 12.80930415235872
1 46984U 20086A   25342.58021994 -.00000050  00000-0  46976-4 0  9993
2 46984  66.0392 170.9479 0007738 269.2212  90.7916 12.80930453235912
1 46984U 20086A   25342.81444764 -.00000051  00000-0  43626-4 0  9993
2 46984  66.0392 170.4614 0007739 269.2159  90.7970 12.80930444235942
1 46984U 20086A   25342.89252352 -.00000051  00000-0  41436-4 0  9998
2 46984  66.0391 170.2992 0007737 269.2247  90.7882 12.80930456235950
1 46984U 20086A   25342.89252352 -.00000051  00000-0  41436-4 0  9998
2 46984  66.0391 170.2992 0007737 269.2247  90.7882 12.80930456235950
1 46984U 20086A   25343.43905478 -.00000047  00000-0  62322-4 0  9995
2 46984  66.0391 169.1640 0007737 269.2403  90.7726 12.80930517236025
1 46984U 20086A   25343.43905479 -.00000047  00000-0  62322-4 0  9996
2 46984  66.0391 169.1640 0007737 269.2403  90.7726 12.80930517236025
1 46984U 20086A   25343.82943429 -.00000046  00000-0  65392-4 0  9995
2 46984  66.0391 168.3531 0007732 269.1607  90.8522 12.80930509236076
1 46984U 20086A   25343.98558608 -.00000046  00000-0  66173-4 0  9991
2 46984  66.0391 168.0287 0007730 269.1798  90.8331 12.80930520236093
1 46984U 20086A   25343.98558608 -.00000046  00000-0  66173-4 0  9991
2 46984  66.0391 168.0287 0007730 269.1798  90.8331 12.80930520236093
1 46984U 20086A   25344.76634507 -.00000040  00000-0  91963-4 0  9990
2 46984  66.0390 166.4071 0007731 269.1652  90.8477 12.80930554236194
1 46984U 20086A   25344.76634508 -.00000040  00000-0  91963-4 0  9991
2 46984  66.0390 166.4071 0007731 269.1652  90.8477 12.80930554236194
1 46984U 20086A   25345.46902817 -.00000033  00000-0  12212-3 0  9991
2 46984  66.0390 164.9476 0007729 269.1796  90.8333 12.80930611236287
1 46984U 20086A   25345.85940762 -.00000033  00000-0  12281-3 0  9991
2 46984  66.0388 164.1366 0007741 269.2307  90.7821 12.80930603236335
1 46984U 20086A   25345.85940762 -.00000033  00000-0  12281-3 0  9991
2 46984  66.0388 164.1366 0007741 269.2307  90.7821 12.80930603236335
1 46984U 20086A   25346.87439428 -.00000030  00000-0  13400-3 0  9997
2 46984  66.0389 162.0284 0007733 269.2327  90.7802 12.80930623236460
1 46984U 20086A   25347.18669786 -.00000033  00000-0  12345-3 0  9994
2 46984  66.0389 161.3797 0007743 269.2599  90.7529 12.80930608236507
1 46984U 20086A   25347.65515329 -.00000033  00000-0  12008-3 0  9995
2 46984  66.0389 160.4067 0007733 269.2353  90.7776 12.80930598236562
1 46984U 20086A   25347.88938089 -.00000022  00000-0  16832-3 0  9999
2 46984  66.0389 159.9202 0007731 269.2340  90.7789 12.80930683236592
1 46984U 20086A   25348.20168444 -.00000022  00000-0  16975-3 0  9994
2 46984  66.0389 159.2715 0007728 269.2435  90.7695 12.80930703236639
1 46984U 20086A   25348.82629157 -.00000026  00000-0  15278-3 0  9994
2 46984  66.0390 157.9742 0007726 269.2420  90.7710 12.80930707236719
1 46984U 20086A   25349.21667104 -.00000033  00000-0  12258-3 0  9995
2 46984  66.0390 157.1633 0007722 269.2823  90.7307 12.80930694236765
1 46984U 20086A   25349.84127808 -.00000035  00000-0  11368-3 0  9999
2 46984  66.0390 155.8659 0007717 269.2652  90.7479 12.80930731236843
1 46984U 20086A   25350.15358159 -.00000039  00000-0  97652-4 0  9995
2 46984  66.0390 155.2173 0007716 269.2946  90.7185 12.80930741236882
1 46984U 20086A   25350.85626451 -.00000040  00000-0  91326-4 0  9999
2 46984  66.0390 153.7577 0007711 269.2591  90.7541 12.80930770236972
1 46984U 20086A   25351.16856801 -.00000043  00000-0  77456-4 0  9999
2 46984  66.0390 153.1090 0007711 269.2841  90.7291 12.80930784237017
1 46984U 20086A   25351.63702324 -.00000047  00000-0  60357-4 0  9997
2 46984  66.0391 152.1360 0007712 269.2447  90.7685 12.80930803237075
1 46984U 20086A   25351.87125090 -.00000049  00000-0  50844-4 0  9994
2 46984  66.0391 151.6495 0007710 269.2543  90.7589 12.80930798237103
1 46984U 20086A   25352.18355437 -.00000054  00000-0  29220-4 0  9999
2 46984  66.0391 151.0009 0007711 269.2836  90.7296 12.80930811237149
1 46984U 20086A   25352.57393372 -.00000060  00000-0  27605-5 0  9995
2 46984  66.0392 150.1900 0007711 269.2572  90.7560 12.80930818237193
1 46984U 20086A   25352.80816135 -.00000061  00000-0  15382-5 0  9998
2 46984  66.0392 149.7036 0007712 269.2651  90.7480 12.80930819237222
1 46984U 20086A   25353.12046484 -.00000066  00000-0 -21644-4 0  9999
2 46984  66.0393 149.0549 0007712 269.3244  90.6888 12.80930822237263
1 46984U 20086A   25353.43276835 -.00000068  00000-0 -29677-4 0  9994
2 46984  66.0393 148.4062 0007711 269.2945  90.7187 12.80930826237304
1 46984U 20086A   25353.74507183 -.00000068  00000-0 -31411-4 0  9990
2 46984  66.0393 147.7576 0007715 269.2966  90.7165 12.80930818237344
1 46984U 20086A   25353.82314769 -.00000065  00000-0 -18193-4 0  9994
2 46984  66.0393 147.5954 0007715 269.3160  90.6971 12.80930846237355
1 46984U 20086A   25353.82314769 -.00000065  00000-0 -18193-4 0  9994
2 46984  66.0393 147.5954 0007715 269.3160  90.6971 12.80930846237355
